OBJECT_NAME,OBJECT_ID,EPOCH,MEAN_MOTION,ECCENTRICITY,INCLINATION,RA_OF_ASC_NODE,ARG_OF_PERICENTER,MEAN_ANOMALY,EPHEMERIS_TYPE,CLASSIFICATION_TYPE,NORAD_CAT_ID,ELEMENT_SET_NO,REV_AT_EPOCH,BSTAR,MEAN_MOTION_DOT,MEAN_MOTION_DDOT
ONEWEB-0053,2020-008AC,2026-07-20T11:48:15.369984,13.10375557,.0001392,87.8818,29.6454,80.2463,279.8822,0,U,45157,999,31227,-.29133465E-3,-.89E-6,0
ONEWEB-0054,2020-008AD,2026-07-20T18:09:26.635392,13.10372032,.0001834,87.8817,29.5784,86.8981,273.2356,0,U,45158,999,31242,.73607E-3,.27E-5,0
ONEWEB-0056,2020-008AE,2026-07-20T19:17:39.164928,13.10375980,.0002034,87.8828,29.5623,83.3894,276.7465,0,U,45159,999,31258,.7008E-3,.257E-5,0
ONEWEB-0057,2020-008AF,2026-07-20T01:22:57.484128,13.10371170,.0001451,87.8819,29.7225,75.7910,284.3378,0,U,45160,999,31265,.18107756E-2,.645E-5,0
ONEWEB-0058,2020-008AG,2026-07-20T19:23:01.343616,13.10485794,.0001491,87.8804,29.5785,102.7685,257.3609,0,U,45161,999,31282,-.18221E-1,-.6354E-4,0
ONEWEB-0059,2020-008AH,2026-07-20T19:18:04.859424,13.10377812,.0001542,87.8821,29.5771,90.0492,270.0812,0,U,45162,999,31272,.79357E-3,.29E-5,0
ONEWEB-0062,2020-008AJ,2026-07-20T18:01:55.878816,13.10369736,.0002145,87.8820,29.5776,95.2955,264.8417,0,U,45163,999,31258,.13883E-2,.497E-5,0
ONEWEB-0065,2020-008AK,2026-07-20T11:30:55.869120,13.10373438,.00017411,87.8824,29.6397,78.5579,281.5743,0,U,45164,999,31224,-.16845466E-2,-.575E-5,0
ONEWEB-0066,2020-020A,2026-07-20T20:52:34.227840,13.11415334,.0001784,87.8884,14.3631,96.2474,263.8857,0,U,45424,999,30709,-.70241E-3,-.236E-5,0
ONEWEB-0067,2020-020B,2026-07-20T10:47:39.557760,13.11427411,.0001688,87.8911,14.3754,87.6476,272.4845,0,U,45425,999,30709,-.10578126E-3,-.25E-6,0
ONEWEB-0080,2020-020C,2026-07-20T18:06:47.968704,13.11430660,.000203,87.8901,14.3861,98.5624,261.5734,0,U,45426,999,30710,-.72602E-2,-.256E-4,0
ONEWEB-0090,2020-020D,2026-07-20T20:38:10.356576,13.11416199,.0001888,87.8900,14.3691,91.3433,268.7911,0,U,45427,999,30708,.13055E-2,.475E-5,0
ONEWEB-0061,2020-020E,2026-07-20T17:44:24.171360,13.11417438,.0001826,87.8897,14.3772,93.3973,266.7364,0,U,45428,999,30702,-.14165E-2,-.489E-5,0
ONEWEB-0081,2020-020F,2026-07-20T20:57:29.786688,13.11414875,.0001634,87.8892,14.3599,93.2187,266.9128,0,U,45429,999,30715,-.11682E-3,-.29E-6,0
ONEWEB-0069,2020-020G,2026-07-20T17:20:22.876800,13.11417320,.0001644,87.8894,14.3934,95.9782,264.1533,0,U,45430,999,30706,-.16264E-3,-.45E-6,0
ONEWEB-0031,2020-020H,2026-07-20T10:52:01.282368,13.11420172,.00020092,87.8885,14.4495,93.5129,266.6229,0,U,45431,999,30701,.25498035E-3,.103E-5,0
ONEWEB-0027,2020-020J,2026-07-20T19:47:43.685952,13.17648558,.0002224,87.9154,359.1739,90.2390,269.8996,0,U,45432,999,31078,.63644E-4,.38E-6,0
ONEWEB-0064,2020-020K,2026-07-20T18:09:02.019168,13.11418344,.0002022,87.8892,14.3823,91.2488,268.8871,0,U,45433,999,30708,-.2355E-3,-.71E-6,0
ONEWEB-0018,2020-020L,2026-07-20T20:45:05.374656,13.11415434,.0001758,87.8892,14.3603,105.1323,254.9999,0,U,45434,999,30704,.99656E-3,.366E-5,0
ONEWEB-0083,2020-020M,2026-07-20T09:31:38.684064,13.11416418,.0001891,87.8896,14.4489,93.6133,266.5211,0,U,45435,999,30702,.16088E-2,.583E-5,0
ONEWEB-0095,2020-020N,2026-07-20T20:18:38.443392,13.11417850,.0002179,87.8898,14.3682,74.0991,286.0377,0,U,45436,999,30708,.14156E-2,.514E-5,0
ONEWEB-0092,2020-020P,2026-07-20T10:03:23.680512,13.11412633,.00017614,87.8893,14.4442,98.4649,261.6679,0,U,45437,999,30714,-.63496176E-3,-.212E-5,0
ONEWEB-0085,2020-020Q,2026-07-20T09:31:14.668320,13.11417168,.0001856,87.8890,14.4537,91.7150,268.4190,0,U,45438,999,30702,.16392E-2,.594E-5,0
ONEWEB-0096,2020-020R,2026-07-20T11:23:45.177216,13.11416122,.00018978,87.8895,14.4359,88.3152,271.8194,0,U,45439,999,30702,.14842349E-2,.539E-5,0
ONEWEB-0037,2020-020S,2026-07-20T10:11:29.200128,13.11522635,.00010432,87.8907,14.4194,101.2993,258.8252,0,U,45440,999,30705,.34368071E-1,.12228E-3,0
ONEWEB-0042,2020-020T,2026-07-20T20:18:14.633280,13.11419164,.0001736,87.8896,14.3585,91.3396,268.7931,0,U,45441,999,30707,.13521E-2,.492E-5,0
ONEWEB-0098,2020-020U,2026-07-20T20:12:20.242944,13.11417044,.0001903,87.8896,14.3680,92.8693,267.2652,0,U,45442,999,30705,.95555E-3,.351E-5,0
ONEWEB-0055,2020-020V,2026-07-20T10:32:16.315008,13.11418015,.00019137,87.8896,14.4476,92.5763,267.5585,0,U,45443,999,30697,-.11741306E-2,-.403E-5,0
ONEWEB-0093,2020-020W,2026-07-20T10:16:28.952832,13.10892053,.00015323,87.8896,14.4468,92.9808,267.1495,0,U,45444,999,30703,-.15402242E-2,-.529E-5,0
ONEWEB-0029,2020-020X,2026-07-20T05:12:51.074784,13.11416781,.00016113,87.8887,14.4913,95.2793,264.8519,0,U,45445,999,30698,-.67279392E-3,-.226E-5,0
