ONEWEB-0053             
1 45157U 20008AC  26201.49184456 -.00000089  00000+0 -29133-3 0  9993
2 45157  87.8818  29.6454 0001392  80.2463 279.8822 13.10375557312272
ONEWEB-0054             
1 45158U 20008AD  26201.75655828  .00000270  00000+0  73607-3 0  9994
2 45158  87.8817  29.5784 0001834  86.8981 273.2356 13.10372032312427
ONEWEB-0056             
1 45159U 20008AE  26201.80392552  .00000257  00000+0  70080-3 0  9990
2 45159  87.8828  29.5623 0002034  83.3894 276.7465 13.10375980312581
ONEWEB-0057             
1 45160U 20008AF  26201.05760977  .00000645  00000+0  18108-2 0  9992
2 45160  87.8819  29.7225 0001451  75.7910 284.3378 13.10371170312652
ONEWEB-0058             
1 45161U 20008AG  26201.80765444 -.00006354  00000+0 -18221-1 0  9990
2 45161  87.8804  29.5785 0001491 102.7685 257.3609 13.10485794312824
ONEWEB-0059             
1 45162U 20008AH  26201.80422291  .00000290  00000+0  79357-3 0  9991
2 45162  87.8821  29.5771 0001542  90.0492 270.0812 13.10377812312729
ONEWEB-0062             
1 45163U 20008AJ  26201.75134119  .00000497  00000+0  13883-2 0  9995
2 45163  87.8820  29.5776 0002145  95.2955 264.8417 13.10369736312587
ONEWEB-0065             
1 45164U 20008AK  26201.47981330 -.00000575  00000+0 -16845-2 0  9990
2 45164  87.8824  29.6397 0001741  78.5579 281.5743 13.10373438312244
ONEWEB-0066             
1 45424U 20020A   26201.86984060 -.00000236  00000+0 -70241-3 0  9994
2 45424  87.8884  14.3631 0001784  96.2474 263.8857 13.11415334307098
ONEWEB-0067             
1 45425U 20020B   26201.44976340 -.00000025  00000+0 -10578-3 0  9994
2 45425  87.8911  14.3754 0001688  87.6476 272.4845 13.11427411307097
ONEWEB-0080             
1 45426U 20020C   26201.75472186 -.00002560  00000+0 -72602-2 0  9999
2 45426  87.8901  14.3861 0002030  98.5624 261.5734 13.11430660307102
ONEWEB-0090             
1 45427U 20020D   26201.85984209  .00000475  00000+0  13055-2 0  9993
2 45427  87.8900  14.3691 0001888  91.3433 268.7911 13.11416199307086
ONEWEB-0061             
1 45428U 20020E   26201.73916865 -.00000489  00000+0 -14165-2 0  9994
2 45428  87.8897  14.3772 0001826  93.3973 266.7364 13.11417438307026
ONEWEB-0081             
1 45429U 20020F   26201.87326142 -.00000029  00000+0 -11682-3 0  9995
2 45429  87.8892  14.3599 0001634  93.2187 266.9128 13.11414875307158
ONEWEB-0069             
1 45430U 20020G   26201.72248700 -.00000045  00000+0 -16264-3 0  9993
2 45430  87.8894  14.3934 0001644  95.9782 264.1533 13.11417320307064
ONEWEB-0031             
1 45431U 20020H   26201.45279262  .00000103  00000+0  25498-3 0  9993
2 45431  87.8885  14.4495 0002009  93.5129 266.6229 13.11420172307016
ONEWEB-0027             
1 45432U 20020J   26201.82481118  .00000038  00000+0  63644-4 0  9993
2 45432  87.9154 359.1739 0002224  90.2390 269.8996 13.17648558310780
ONEWEB-0064             
1 45433U 20020K   26201.75627337 -.00000071  00000+0 -23550-3 0  9991
2 45433  87.8892  14.3823 0002022  91.2488 268.8871 13.11418344307080
ONEWEB-0018             
1 45434U 20020L   26201.86464554  .00000366  00000+0  99656-3 0  9999
2 45434  87.8892  14.3603 0001758 105.1323 254.9999 13.11415434307045
ONEWEB-0083             
1 45435U 20020M   26201.39697551  .00000583  00000+0  16088-2 0  9991
2 45435  87.8896  14.4489 0001891  93.6133 266.5211 13.11416418307028
ONEWEB-0095             
1 45436U 20020N   26201.84627828  .00000514  00000+0  14156-2 0  9990
2 45436  87.8898  14.3682 0002179  74.0991 286.0377 13.11417850307087
ONEWEB-0092             
1 45437U 20020P   26201.41902408 -.00000212  00000+0 -63496-3 0  9993
2 45437  87.8893  14.4442 0001761  98.4649 261.6679 13.11412633307149
ONEWEB-0085             
1 45438U 20020Q   26201.39669755  .00000594  00000+0  16392-2 0  9999
2 45438  87.8890  14.4537 0001856  91.7150 268.4190 13.11417168307028
ONEWEB-0096             
1 45439U 20020R   26201.47482844  .00000539  00000+0  14842-2 0  9998
2 45439  87.8895  14.4359 0001897  88.3152 271.8194 13.11416122307026
ONEWEB-0037             
1 45440U 20020S   26201.42464352  .00012228  00000+0  34368-1 0  9991
2 45440  87.8907  14.4194 0001043 101.2993 258.8252 13.11522635307050
ONEWEB-0042             
1 45441U 20020T   26201.84600270  .00000492  00000+0  13521-2 0  9998
2 45441  87.8896  14.3585 0001736  91.3396 268.7931 13.11419164307074
ONEWEB-0098             
1 45442U 20020U   26201.84190096  .00000351  00000+0  95555-3 0  9991
2 45442  87.8896  14.3680 0001903  92.8693 267.2652 13.11417044307050
ONEWEB-0055             
1 45443U 20020V   26201.43907772 -.00000403  00000+0 -11741-2 0  9998
2 45443  87.8896  14.4476 0001913  92.5763 267.5585 13.11418015306978
ONEWEB-0093             
1 45444U 20020W   26201.42811288 -.00000529  00000+0 -15402-2 0  9991
2 45444  87.8896  14.4468 0001532  92.9808 267.1495 13.10892053307032
ONEWEB-0029             
1 45445U 20020X   26201.21725781 -.00000226  00000+0 -67279-3 0  9995
2 45445  87.8887  14.4913 0001611  95.2793 264.8519 13.11416781306980
